{
  "norad_id": 65180,
  "name": "STARLINK-34862",
  "history": [
    {
      "epoch": "2026-04-13T05:11:13.557696Z",
      "apogee_km": 551.0619407245458,
      "perigee_km": 547.9784405090031,
      "latitude_deg": 9.888851213319195e-05,
      "longitude_deg": 57.439000727643645,
      "height_km": 552.2596072475167,
      "semi_major_axis_km": 6927.657190616775,
      "eccentricity": 0.00022255,
      "inclination_deg": 97.603,
      "raan_deg": 336.6556,
      "arg_perigee_deg": 77.9413,
      "mean_anomaly_deg": 282.2064,
      "mean_motion_rev_day": 15.05647054
    },
    {
      "epoch": "2026-04-14T14:40:55.727904Z",
      "apogee_km": 550.9716010601205,
      "perigee_km": 548.0453636083821,
      "latitude_deg": -4.1662797502934766e-05,
      "longitude_deg": -84.98708114177518,
      "height_km": 552.2408086444281,
      "semi_major_axis_km": 6927.645482334251,
      "eccentricity": 0.0002112,
      "inclination_deg": 97.6025,
      "raan_deg": 338.0308,
      "arg_perigee_deg": 76.9878,
      "mean_anomaly_deg": 283.1584,
      "mean_motion_rev_day": 15.05650871
    },
    {
      "epoch": "2026-04-15T14:36:25.656192Z",
      "apogee_km": 550.8897297842159,
      "perigee_km": 548.1075913029417,
      "latitude_deg": 4.642607567600574e-05,
      "longitude_deg": -83.86115624907409,
      "height_km": 552.1327883840826,
      "semi_major_axis_km": 6927.6356605435785,
      "eccentricity": 0.0002008,
      "inclination_deg": 97.603,
      "raan_deg": 339.014,
      "arg_perigee_deg": 72.0874,
      "mean_anomaly_deg": 288.0572,
      "mean_motion_rev_day": 15.05654073
    },
    {
      "epoch": "2026-04-16T14:31:55.388352Z",
      "apogee_km": 550.8655323724943,
      "perigee_km": 548.1041823001597,
      "latitude_deg": 9.046730369963886e-06,
      "longitude_deg": -82.7352951394002,
      "height_km": 552.2056201877522,
      "semi_major_axis_km": 6927.621857336327,
      "eccentricity": 0.0001993,
      "inclination_deg": 97.6046,
      "raan_deg": 339.9963,
      "arg_perigee_deg": 75.6943,
      "mean_anomaly_deg": 284.4505,
      "mean_motion_rev_day": 15.05658573
    },
    {
      "epoch": "2026-04-17T12:51:43.347168Z",
      "apogee_km": 550.8499943958741,
      "perigee_km": 548.1369957413963,
      "latitude_deg": -4.6020059922269786e-05,
      "longitude_deg": -57.68497490534463,
      "height_km": 552.2070841710628,
      "semi_major_axis_km": 6927.630495068635,
      "eccentricity": 0.00019581,
      "inclination_deg": 97.6047,
      "raan_deg": 340.9135,
      "arg_perigee_deg": 75.1175,
      "mean_anomaly_deg": 285.0268,
      "mean_motion_rev_day": 15.05655757
    },
    {
      "epoch": "2026-04-18T14:22:55.226784Z",
      "apogee_km": 550.9085517303702,
      "perigee_km": 548.062684358878,
      "latitude_deg": -2.709798448334504e-05,
      "longitude_deg": -80.48364307132275,
      "height_km": 552.053053534445,
      "semi_major_axis_km": 6927.622618044624,
      "eccentricity": 0.0002054,
      "inclination_deg": 97.6037,
      "raan_deg": 341.9624,
      "arg_perigee_deg": 69.6645,
      "mean_anomaly_deg": 290.4802,
      "mean_motion_rev_day": 15.05658325
    },
    {
      "epoch": "2026-04-19T14:18:25.322688Z",
      "apogee_km": 550.9643482094916,
      "perigee_km": 548.0381138207104,
      "latitude_deg": 9.060764286295552e-05,
      "longitude_deg": -79.36012497966202,
      "height_km": 552.3128034610858,
      "semi_major_axis_km": 6927.6382310151,
      "eccentricity": 0.0002112,
      "inclination_deg": 97.6026,
      "raan_deg": 342.9439,
      "arg_perigee_deg": 80.156,
      "mean_anomaly_deg": 279.9906,
      "mean_motion_rev_day": 15.05653235
    },
    {
      "epoch": "2026-04-20T09:26:49.358976Z",
      "apogee_km": 550.9098142205521,
      "perigee_km": 548.1010708686463,
      "latitude_deg": 2.998538044468276e-05,
      "longitude_deg": -6.46102179188669,
      "height_km": 552.2200293513124,
      "semi_major_axis_km": 6927.642442544598,
      "eccentricity": 0.00020272,
      "inclination_deg": 97.5993,
      "raan_deg": 343.7292,
      "arg_perigee_deg": 75.6773,
      "mean_anomaly_deg": 284.4679,
      "mean_motion_rev_day": 15.05651862
    },
    {
      "epoch": "2026-04-21T15:45:07.425216Z",
      "apogee_km": 551.7163743135625,
      "perigee_km": 547.2743764344723,
      "latitude_deg": 4.4207380621673704e-05,
      "longitude_deg": -101.03758561851079,
      "height_km": 552.1746027160211,
      "semi_major_axis_km": 6927.632375374017,
      "eccentricity": 0.0003206,
      "inclination_deg": 97.5977,
      "raan_deg": 344.9725,
      "arg_perigee_deg": 80.1322,
      "mean_anomaly_deg": 280.0267,
      "mean_motion_rev_day": 15.05655144
    },
    {
      "epoch": "2026-04-22T12:29:16.157760Z",
      "apogee_km": 551.9134502797324,
      "perigee_km": 547.6721716494603,
      "latitude_deg": -2.4371282607569478e-05,
      "longitude_deg": -52.081451654212394,
      "height_km": 552.7810838199807,
      "semi_major_axis_km": 6927.929810964596,
      "eccentricity": 0.0003061,
      "inclination_deg": 97.586,
      "raan_deg": 345.8166,
      "arg_perigee_deg": 88.0528,
      "mean_anomaly_deg": 272.1049,
      "mean_motion_rev_day": 15.05558182
    },
    {
      "epoch": "2026-04-23T02:50:32.406432Z",
      "apogee_km": 552.133652682588,
      "perigee_km": 547.089420418155,
      "latitude_deg": -7.131019643698138e-05,
      "longitude_deg": 92.59853146176333,
      "height_km": 552.1208203229521,
      "semi_major_axis_km": 6927.748536550371,
      "eccentricity": 0.00036406,
      "inclination_deg": 97.584,
      "raan_deg": 346.4038,
      "arg_perigee_deg": 77.4012,
      "mean_anomaly_deg": 282.7621,
      "mean_motion_rev_day": 15.05617275
    },
    {
      "epoch": "2026-04-24T15:31:37.145280Z",
      "apogee_km": 551.0878667052248,
      "perigee_km": 547.8831485332003,
      "latitude_deg": -5.270152696482912e-05,
      "longitude_deg": -97.67100338386007,
      "height_km": 552.0873960833829,
      "semi_major_axis_km": 6927.622507619212,
      "eccentricity": 0.0002313,
      "inclination_deg": 97.58,
      "raan_deg": 347.9106,
      "arg_perigee_deg": 73.3084,
      "mean_anomaly_deg": 286.8396,
      "mean_motion_rev_day": 15.05658361
    },
    {
      "epoch": "2026-04-25T15:27:07.534080Z",
      "apogee_km": 551.4036054121607,
      "perigee_km": 547.5837098675383,
      "latitude_deg": -4.397556834782644e-05,
      "longitude_deg": -96.54929417067993,
      "height_km": 552.0987962385634,
      "semi_major_axis_km": 6927.630657639849,
      "eccentricity": 0.0002757,
      "inclination_deg": 97.5736,
      "raan_deg": 348.8915,
      "arg_perigee_deg": 76.1773,
      "mean_anomaly_deg": 283.976,
      "mean_motion_rev_day": 15.05655704
    },
    {
      "epoch": "2026-04-26T15:22:38.025696Z",
      "apogee_km": 551.1889958047868,
      "perigee_km": 547.8887895630305,
      "latitude_deg": -1.5961540338421132e-06,
      "longitude_deg": -95.43021828366244,
      "height_km": 551.5968409631415,
      "semi_major_axis_km": 6927.675892683908,
      "eccentricity": 0.00023819,
      "inclination_deg": 97.5744,
      "raan_deg": 349.8702,
      "arg_perigee_deg": 52.4895,
      "mean_anomaly_deg": 307.6548,
      "mean_motion_rev_day": 15.05640957
    },
    {
      "epoch": "2026-04-27T13:42:25.784064Z",
      "apogee_km": 551.1323044161973,
      "perigee_km": 547.8652313880548,
      "latitude_deg": 8.712910760135194e-05,
      "longitude_deg": -70.38498029880344,
      "height_km": 552.1483574205382,
      "semi_major_axis_km": 6927.635767902126,
      "eccentricity": 0.0002358,
      "inclination_deg": 97.5701,
      "raan_deg": 350.7815,
      "arg_perigee_deg": 75.3668,
      "mean_anomaly_deg": 284.7821,
      "mean_motion_rev_day": 15.05654038
    },
    {
      "epoch": "2026-04-28T15:13:37.680096Z",
      "apogee_km": 551.3705004542007,
      "perigee_km": 547.6309616069911,
      "latitude_deg": 2.3624343791084606e-05,
      "longitude_deg": -93.19080587249735,
      "height_km": 552.2535294398983,
      "semi_major_axis_km": 6927.637731030596,
      "eccentricity": 0.0002699,
      "inclination_deg": 97.5623,
      "raan_deg": 351.8233,
      "arg_perigee_deg": 80.4865,
      "mean_anomaly_deg": 279.6667,
      "mean_motion_rev_day": 15.05653398
    },
    {
      "epoch": "2026-04-29T15:09:07.697376Z",
      "apogee_km": 551.3129070727937,
      "perigee_km": 547.6842115668223,
      "latitude_deg": 3.3843561747183367e-06,
      "longitude_deg": -92.07163981311824,
      "height_km": 552.3553797258378,
      "semi_major_axis_km": 6927.635559319808,
      "eccentricity": 0.0002619,
      "inclination_deg": 97.5574,
      "raan_deg": 352.8001,
      "arg_perigee_deg": 83.5031,
      "mean_anomaly_deg": 276.6494,
      "mean_motion_rev_day": 15.05654106
    },
    {
      "epoch": "2026-04-30T15:04:37.653312Z",
      "apogee_km": 551.3240348487352,
      "perigee_km": 547.6482380125453,
      "latitude_deg": 8.874483236780847e-06,
      "longitude_deg": -90.95312147029004,
      "height_km": 552.2559711473342,
      "semi_major_axis_km": 6927.62313643064,
      "eccentricity": 0.0002653,
      "inclination_deg": 97.5519,
      "raan_deg": 353.776,
      "arg_perigee_deg": 80.8459,
      "mean_anomaly_deg": 279.3068,
      "mean_motion_rev_day": 15.05658156
    }
  ]
}